{
    "links": {
        "self": "http://www.neowsapp.com/rest/v1/neo/3264086?api_key=iIulBulltgU6a56xZRHN4H3l9WmuAYTsLGpBGhQ2"
    },
    "id": "3264086",
    "neo_reference_id": "3264086",
    "name": "(2004 YA)",
    "designation": "2004 YA",
    "nasa_jpl_url": "http://ssd.jpl.nasa.gov/sbdb.cgi?sstr=3264086",
    "absolute_magnitude_h": 24.9,
    "estimated_diameter": {
        "kilometers": {
            "estimated_diameter_min": 0.0278326768,
            "estimated_diameter_max": 0.0622357573
        },
        "meters": {
            "estimated_diameter_min": 27.8326768072,
            "estimated_diameter_max": 62.2357573367
        },
        "miles": {
            "estimated_diameter_min": 0.0172944182,
            "estimated_diameter_max": 0.0386714948
        },
        "feet": {
            "estimated_diameter_min": 91.3145593761,
            "estimated_diameter_max": 204.1855621004
        }
    },
    "is_potentially_hazardous_asteroid": false,
    "close_approach_data": [
        {
            "close_approach_date": "2004-12-10",
            "close_approach_date_full": "2004-Dec-10 23:31",
            "epoch_date_close_approach": 1102721460000,
            "relative_velocity": {
                "kilometers_per_second": "15.8187788769",
                "kilometers_per_hour": "56947.603956872",
                "miles_per_hour": "35385.0264697575"
            },
            "miss_distance": {
                "astronomical": "0.0527328525",
                "lunar": "20.5130796225",
                "kilometers": "7888722.413024175",
                "miles": "4901824.806816615"
            },
            "orbiting_body": "Earth"
        }
    ],
    "orbital_data": {
        "orbit_id": "7",
        "orbit_determination_date": "2017-04-06 09:11:43",
        "first_observation_date": "2004-12-16",
        "last_observation_date": "2004-12-18",
        "data_arc_in_days": 2,
        "observations_used": 19,
        "orbit_uncertainty": "9",
        "minimum_orbit_intersection": ".0511539",
        "jupiter_tisserand_invariant": "5.024",
        "epoch_osculation": "2453356.5",
        "eccentricity": ".3707719586899338",
        "semi_major_axis": "1.242729334947453",
        "inclination": "22.85650069480025",
        "ascending_node_longitude": "264.4325042904476",
        "orbital_period": "506.0148380623017",
        "perihelion_distance": ".7819601453075471",
        "perihelion_argument": "92.41565041966885",
        "aphelion_distance": "1.703498524587359",
        "perihelion_time": "2453290.155524699828",
        "mean_anomaly": "47.20021887010607",
        "mean_motion": ".7114415881134221",
        "equinox": "J2000",
        "orbit_class": {
            "orbit_class_type": "APO",
            "orbit_class_description": "Near-Earth asteroid orbits which cross the Earth’s orbit similar to that of 1862 Apollo",
            "orbit_class_range": "a (semi-major axis) > 1.0 AU; q (perihelion) < 1.017 AU"
        }
    },
    "is_sentry_object": false
}